STARLINK-36543          
1 67515U 26012Y   26043.58335648 -.01882796  00000+0 -38618-1 0  9991
2 67515  42.9999  96.7225 0001611 285.2063 158.4959 15.48355421  4973
STARLINK-36537          
1 67516U 26012Z   26043.58335648 -.01837907  00000+0 -37498-1 0  9991
2 67516  43.0001  96.5540 0001362 290.5281 221.3915 15.48432273  4975
STARLINK-36544          
1 67517U 26012AA  26043.58335648 -.01882031  00000+0 -41028-1 0  9994
2 67517  43.0003  96.5233 0001168 299.1129 225.6266 15.46622443  5039
STARLINK-36412          
1 67518U 26012AB  26043.58335648 -.01043380  00000+0 -19348-1 0  9991
2 67518  43.0004  96.4985 0000685 274.2797 259.7686 15.50889777  4978
STARLINK-36415          
1 67519U 26012AC  26043.58335648  .00004089  00000+0  75509-4 0  9996
2 67519  43.0001  96.4675 0001668 294.0977 251.8275 15.50570146  5193
STARLINK-36547          
1 67520U 26012AD  26043.58335648 -.01641321  00000+0 -30838-1 0  9990
2 67520  43.0004  96.5217 0001401 296.9877 227.5868 15.50895924  4973
STARLINK-36444          
1 67521U 26012AE  26043.58335648  .00008956  00000+0  15833-3 0  9999
2 67521  43.0004  96.6472 0001027 311.7568 161.9833 15.50573599  4979
HULIANWANG DIGUI-146    
1 67522U 26013A   26042.34729179 -.00000041  00000+0  98639-4 0  9994
2 67522  50.0087  93.2680 0003231 354.9738   5.1123 13.78804724  3212
HULIANWANG DIGUI-147    
1 67523U 26013B   26043.07076712 -.00000042  00000+0  98544-4 0  9990
2 67523  50.0049  90.4143 0001427  24.4462 335.6498 13.78106281  3312
HULIANWANG DIGUI-148    
1 67524U 26013C   26042.63100185 -.00000027  00000+0  11318-3 0  9990
2 67524  50.0089  92.0945 0000669  68.0195 292.0769 13.78557366  3253
HULIANWANG DIGUI-149    
1 67525U 26013D   26042.62750824 -.00000031  00000+0  10788-3 0  9996
2 67525  50.0066  92.0767 0002211  45.1613 314.9460 13.79047719  3256
HULIANWANG DIGUI-150    
1 67526U 26013E   26042.76565202 -.00000036  00000+0  10353-3 0  9999
2 67526  50.0132  91.4490 0002976 205.9839 154.0905 13.79114508  3293
